{"type":"FeatureCollection","features":[{"type":"Feature","properties":{"name":"高松市"},"geometry":{"type":"MultiPolygon","coordinates":[[[[133.9999,34.3583],[134.0002,34.3598],[133.9945,34.3632],[133.9931,34.3628],[133.993,34.3581],[133.9961,34.3562],[133.9999,34.3583]]],[[[134.1755,34.3957],[134.1724,34.3929],[134.1762,34.3904],[134.1755,34.3957]]],[[[134.1657,34.3261],[134.1601,34.3307],[134.159,34.3349],[134.1562,34.3371],[134.1557,34.3427],[134.1578,34.3476],[134.1578,34.3507],[134.1599,34.3544],[134.1581,34.3572],[134.1588,34.3593],[134.1572,34.3637],[134.1582,34.3679],[134.1608,34.3694],[134.1605,34.3729],[134.1634,34.3778],[134.1637,34.3826],[134.1595,34.3891],[134.1518,34.3919],[134.1459,34.3951],[134.1429,34.3976],[134.1363,34.4003],[134.1266,34.396],[134.1211,34.3984],[134.1197,34.3948],[134.1218,34.3926],[134.1224,34.3895],[134.1261,34.3918],[134.1283,34.3891],[134.1288,34.3861],[134.1249,34.385],[134.1229,34.3791],[134.12,34.3766],[134.1164,34.3763],[134.1164,34.3723],[134.1206,34.3595],[134.1153,34.3589],[134.113,34.3643],[134.1078,34.372],[134.0992,34.3801],[134.0956,34.3817],[134.0923,34.3846],[134.0911,34.3722],[134.0921,34.369],[134.0907,34.3627],[134.0853,34.3531],[134.0857,34.3517],[134.0787,34.35],[134.0796,34.3592],[134.0776,34.3616],[134.075,34.3618],[134.0747,34.3513],[134.0695,34.352],[134.0693,34.3622],[134.0633,34.3626],[134.0642,34.3576],[134.0552,34.3562],[134.0559,34.3546],[134.0602,34.3541],[134.0603,34.3509],[134.0498,34.3525],[134.0473,34.3555],[134.0379,34.3523],[134.0282,34.3538],[134.025,34.355],[134.0194,34.3547],[134.0192,34.3529],[134.0092,34.3546],[134.0096,34.3561],[134.0156,34.3551],[134.0159,34.3564],[134.0073,34.3578],[134.0032,34.3592],[134.0023,34.3552],[133.9988,34.3546],[133.9928,34.3566],[133.9896,34.3596],[133.9909,34.3607],[133.9825,34.3652],[133.9805,34.3669],[133.9781,34.3725],[133.9757,34.3731],[133.9703,34.3694],[133.9713,34.3681],[133.9636,34.365],[133.9605,34.3688],[133.9632,34.3703],[133.9592,34.3776],[133.9474,34.3809],[133.9432,34.3755],[133.9385,34.3757],[133.9388,34.3807],[133.9338,34.3845],[133.9318,34.3883],[133.9276,34.3897],[133.9297,34.3859],[133.9288,34.3774],[133.9324,34.3767],[133.9336,34.3725],[133.9355,34.3705],[133.9357,34.3638],[133.9367,34.3609],[133.9349,34.3553],[133.9378,34.3532],[133.9375,34.3482],[133.9434,34.3464],[133.9454,34.3438],[133.9464,34.3384],[133.9523,34.3352],[133.9536,34.332],[133.9513,34.3272],[133.9538,34.3253],[133.9514,34.3233],[133.9493,34.3247],[133.9422,34.3251],[133.9415,34.3222],[133.9305,34.3207],[133.9296,34.3184],[133.9254,34.3158],[133.9289,34.3125],[133.932,34.3064],[133.935,34.3052],[133.9386,34.3007],[133.9395,34.2974],[133.9386,34.2947],[133.9418,34.2922],[133.9428,34.288],[133.9409,34.2827],[133.944,34.2785],[133.9439,34.272],[133.9451,34.2703],[133.9501,34.2712],[133.9534,34.269],[133.9623,34.2662],[133.9658,34.2657],[133.9705,34.2632],[133.9789,34.264],[133.9839,34.2661],[133.9877,34.262],[133.9887,34.2668],[133.9923,34.2633],[133.9934,34.2602],[133.9901,34.254],[133.9884,34.253],[133.9863,34.2477],[133.9852,34.242],[133.9885,34.2384],[133.9891,34.2358],[133.993,34.2355],[133.994,34.2302],[134.0044,34.2186],[134.0089,34.2169],[134.0102,34.2128],[134.0129,34.2116],[134.0134,34.2066],[134.0154,34.2047],[134.0152,34.2015],[134.0171,34.1899],[134.0234,34.1899],[134.0254,34.1878],[134.025,34.183],[134.0233,34.1803],[134.0242,34.1744],[134.0277,34.1719],[134.0282,34.1679],[134.0256,34.1657],[134.0256,34.1611],[134.0219,34.16],[134.0209,34.1581],[134.0233,34.1552],[134.0224,34.1522],[134.0246,34.1397],[134.0296,34.1398],[134.0343,34.1347],[134.0361,34.1289],[134.0499,34.1174],[134.0534,34.118],[134.0583,34.1152],[134.0614,34.111],[134.0669,34.1128],[134.0709,34.1127],[134.0719,34.1155],[134.0796,34.1211],[134.0816,34.1213],[134.0945,34.1146],[134.103,34.115],[134.106,34.1171],[134.1161,34.1181],[134.1193,34.1203],[134.1223,34.1188],[134.1271,34.1232],[134.1312,34.1254],[134.1327,34.1296],[134.138,34.1324],[134.1393,34.1341],[134.1377,34.138],[134.1385,34.1415],[134.1375,34.1473],[134.1353,34.1515],[134.131,34.1509],[134.1282,34.1527],[134.1254,34.1603],[134.1237,34.1619],[134.1223,34.1675],[134.1181,34.1732],[134.1123,34.1781],[134.1143,34.1808],[134.1097,34.1834],[134.1104,34.193],[134.1093,34.1983],[134.1052,34.2016],[134.1054,34.2095],[134.1069,34.2105],[134.1056,34.2146],[134.1087,34.2197],[134.1121,34.2218],[134.1121,34.2251],[134.1144,34.2265],[134.1131,34.2301],[134.1111,34.2318],[134.1112,34.2348],[134.1134,34.2354],[134.1146,34.2383],[134.1122,34.24],[134.1104,34.2447],[134.1115,34.249],[134.1095,34.2522],[134.1116,34.2544],[134.1125,34.2623],[134.1145,34.2685],[134.1192,34.2876],[134.1191,34.2903],[134.1222,34.2918],[134.1211,34.2941],[134.122,34.2974],[134.1255,34.2986],[134.1265,34.304],[134.125,34.31],[134.1302,34.3173],[134.1335,34.3143],[134.1371,34.3131],[134.1398,34.3142],[134.1493,34.3135],[134.1554,34.3106],[134.1591,34.3141],[134.1606,34.3175],[134.1648,34.3223],[134.1657,34.3261]]],[[[134.0538,34.4092],[134.0511,34.4083],[134.0503,34.4048],[134.0441,34.3961],[134.0427,34.3927],[134.0373,34.3869],[134.0356,34.3832],[134.0382,34.3793],[134.0425,34.3811],[134.0487,34.3896],[134.052,34.389],[134.0542,34.3904],[134.0569,34.3975],[134.0556,34.4044],[134.0565,34.4058],[134.0538,34.4092]]],[[[134.1054,34.4146],[134.1037,34.4134],[134.106,34.4074],[134.105,34.4047],[134.1008,34.4038],[134.101,34.4006],[134.1078,34.4013],[134.1117,34.4046],[134.1074,34.4097],[134.1054,34.4146]]],[[[134.1262,34.4212],[134.1229,34.419],[134.1226,34.4163],[134.1268,34.4165],[134.1279,34.4192],[134.1262,34.4212]]],[[[134.0626,34.4332],[134.0577,34.4318],[134.0542,34.4242],[134.0552,34.4172],[134.0591,34.4199],[134.0626,34.4201],[134.0647,34.4223],[134.0658,34.4292],[134.0626,34.4332]]]]}},{"type":"Feature","properties":{"name":"丸亀市"},"geometry":{"type":"MultiPolygon","coordinates":[[[[133.8063,34.3106],[133.797,34.306],[133.7925,34.31],[133.7913,34.3087],[133.7967,34.3017],[133.792,34.2994],[133.7934,34.2964],[133.7888,34.295],[133.7874,34.2972],[133.7897,34.2987],[133.7827,34.3107],[133.7721,34.306],[133.7764,34.3039],[133.7787,34.3003],[133.7819,34.3017],[133.7833,34.3],[133.7753,34.2965],[133.7781,34.2921],[133.7762,34.2915],[133.7684,34.3038],[133.7619,34.2999],[133.7671,34.2921],[133.7709,34.2883],[133.7681,34.2878],[133.7642,34.2844],[133.7726,34.2722],[133.7738,34.2681],[133.7725,34.2674],[133.7759,34.2631],[133.7741,34.2604],[133.7758,34.2567],[133.7813,34.2591],[133.7826,34.255],[133.7862,34.2544],[133.7955,34.2589],[133.8015,34.2493],[133.8082,34.2397],[133.8084,34.2377],[133.8166,34.2413],[133.8192,34.2372],[133.8181,34.2332],[133.8228,34.2264],[133.8218,34.2257],[133.8257,34.2205],[133.8282,34.2215],[133.8303,34.2191],[133.8325,34.2205],[133.8421,34.2158],[133.8459,34.215],[133.8455,34.2125],[133.851,34.2072],[133.8503,34.2047],[133.8538,34.2009],[133.8561,34.2037],[133.8687,34.2026],[133.8767,34.204],[133.8828,34.2045],[133.8901,34.2063],[133.8932,34.2082],[133.8979,34.2065],[133.9007,34.209],[133.8955,34.2135],[133.8987,34.2216],[133.8985,34.2314],[133.899,34.2345],[133.8975,34.2371],[133.9006,34.2405],[133.8974,34.245],[133.8933,34.2446],[133.8944,34.2486],[133.8978,34.2496],[133.9,34.2526],[133.9007,34.256],[133.9029,34.2573],[133.9023,34.2623],[133.9037,34.2641],[133.9051,34.2688],[133.9038,34.2716],[133.8949,34.2739],[133.8948,34.278],[133.8932,34.2804],[133.8916,34.2862],[133.8899,34.2898],[133.8868,34.2883],[133.881,34.2879],[133.8706,34.2828],[133.8646,34.2829],[133.8571,34.2802],[133.8545,34.2804],[133.8445,34.2749],[133.8408,34.2843],[133.8383,34.284],[133.8364,34.2879],[133.833,34.2871],[133.8316,34.2907],[133.8265,34.2953],[133.8235,34.2969],[133.8222,34.3009],[133.8157,34.3047],[133.8105,34.3009],[133.8074,34.3039],[133.8063,34.3106]]],[[[133.7797,34.3655],[133.7761,34.3643],[133.7751,34.362],[133.7758,34.3565],[133.7801,34.3562],[133.787,34.3599],[133.7854,34.3641],[133.7823,34.3633],[133.7797,34.3655]]],[[[133.6495,34.3833],[133.6429,34.3769],[133.6469,34.3773],[133.648,34.3741],[133.6524,34.3734],[133.6528,34.3759],[133.6495,34.3833]]],[[[133.7105,34.3991],[133.7084,34.3938],[133.7091,34.3873],[133.7055,34.3854],[133.6995,34.3867],[133.6979,34.3838],[133.6973,34.3787],[133.6904,34.3777],[133.6907,34.3757],[133.6882,34.3695],[133.6888,34.3657],[133.6851,34.3636],[133.6845,34.3612],[133.6873,34.3587],[133.6954,34.3551],[133.6988,34.352],[133.7089,34.3532],[133.7088,34.3574],[133.7119,34.3633],[133.7156,34.3644],[133.7188,34.3624],[133.7226,34.3625],[133.7276,34.368],[133.7305,34.3703],[133.7304,34.3742],[133.7269,34.3794],[133.7249,34.3844],[133.7178,34.3924],[133.7189,34.3964],[133.7124,34.4006],[133.7105,34.3991]]],[[[133.7777,34.401],[133.7742,34.3971],[133.7677,34.3923],[133.7615,34.39],[133.7584,34.3911],[133.7567,34.3972],[133.7527,34.3986],[133.7516,34.3946],[133.7545,34.3931],[133.7529,34.388],[133.7569,34.3849],[133.7602,34.379],[133.7594,34.3762],[133.7572,34.3751],[133.7565,34.3719],[133.7576,34.3698],[133.7632,34.3687],[133.77,34.3722],[133.772,34.3772],[133.7775,34.3807],[133.782,34.3807],[133.7854,34.3833],[133.7889,34.3841],[133.7884,34.3867],[133.7909,34.3881],[133.7945,34.3873],[133.7943,34.3902],[133.79,34.3919],[133.7906,34.3953],[133.7827,34.3974],[133.7777,34.401]]],[[[133.784,34.4072],[133.7803,34.4046],[133.7833,34.4029],[133.7893,34.4035],[133.784,34.4072]]],[[[133.6717,34.4108],[133.6679,34.409],[133.6588,34.4065],[133.6527,34.4091],[133.6512,34.4067],[133.6569,34.4035],[133.6592,34.3997],[133.662,34.3978],[133.6613,34.3911],[133.6634,34.391],[133.6655,34.383],[133.668,34.3867],[133.6721,34.3887],[133.6738,34.3916],[133.677,34.3928],[133.6776,34.399],[133.6738,34.3985],[133.6718,34.4008],[133.6754,34.4072],[133.6758,34.4099],[133.6717,34.4108]]]]}},{"type":"Feature","properties":{"name":"坂出市"},"geometry":{"type":"MultiPolygon","coordinates":[[[[133.9276,34.3897],[133.9253,34.384],[133.9209,34.3777],[133.9176,34.3769],[133.9097,34.382],[133.9074,34.3783],[133.9005,34.3777],[133.8987,34.3814],[133.894,34.3824],[133.8891,34.3777],[133.888,34.3752],[133.8901,34.369],[133.8927,34.3645],[133.891,34.3589],[133.8949,34.3546],[133.8905,34.3517],[133.8821,34.3441],[133.8784,34.3448],[133.8714,34.3397],[133.862,34.3319],[133.857,34.3307],[133.8578,34.3267],[133.8508,34.3264],[133.8504,34.3301],[133.8464,34.328],[133.8373,34.3252],[133.8343,34.3249],[133.8332,34.3296],[133.8304,34.3333],[133.8391,34.3346],[133.8384,34.3386],[133.8446,34.3395],[133.8478,34.3389],[133.8576,34.3458],[133.859,34.3531],[133.8579,34.3574],[133.8496,34.36],[133.8486,34.3562],[133.8362,34.3458],[133.8289,34.3421],[133.8294,34.3476],[133.8328,34.3493],[133.8407,34.356],[133.8405,34.3607],[133.8243,34.3526],[133.8207,34.3513],[133.8222,34.346],[133.8209,34.3379],[133.8258,34.3375],[133.8277,34.3261],[133.8293,34.3235],[133.8315,34.3196],[133.8371,34.3157],[133.8392,34.3111],[133.8434,34.3066],[133.8401,34.3029],[133.8393,34.2998],[133.8413,34.2934],[133.8372,34.2904],[133.8364,34.2879],[133.8383,34.284],[133.8408,34.2843],[133.8445,34.2749],[133.8545,34.2804],[133.8571,34.2802],[133.8646,34.2829],[133.8706,34.2828],[133.881,34.2879],[133.8868,34.2883],[133.8899,34.2898],[133.8916,34.2862],[133.8932,34.2804],[133.8948,34.278],[133.8949,34.2739],[133.9038,34.2716],[133.9051,34.2688],[133.9037,34.2641],[133.9054,34.2633],[133.9135,34.2656],[133.9149,34.2645],[133.9191,34.2657],[133.9233,34.2655],[133.9305,34.2699],[133.9328,34.2665],[133.9378,34.2689],[133.941,34.2728],[133.9426,34.2779],[133.944,34.2785],[133.9409,34.2827],[133.9428,34.288],[133.9418,34.2922],[133.9386,34.2947],[133.9395,34.2974],[133.9386,34.3007],[133.935,34.3052],[133.932,34.3064],[133.9289,34.3125],[133.9254,34.3158],[133.9296,34.3184],[133.9305,34.3207],[133.9415,34.3222],[133.9422,34.3251],[133.9493,34.3247],[133.9514,34.3233],[133.9538,34.3253],[133.9513,34.3272],[133.9536,34.332],[133.9523,34.3352],[133.9464,34.3384],[133.9454,34.3438],[133.9434,34.3464],[133.9375,34.3482],[133.9378,34.3532],[133.9349,34.3553],[133.9367,34.3609],[133.9357,34.3638],[133.9355,34.3705],[133.9336,34.3725],[133.9324,34.3767],[133.9288,34.3774],[133.9297,34.3859],[133.9276,34.3897]]],[[[133.8295,34.395],[133.8274,34.3922],[133.828,34.3904],[133.8328,34.3891],[133.8313,34.3942],[133.8295,34.395]]],[[[133.8205,34.3954],[133.8151,34.3942],[133.8123,34.3919],[133.815,34.3845],[133.8224,34.3828],[133.8246,34.3902],[133.8205,34.3954]]],[[[133.8121,34.4087],[133.8088,34.4082],[133.8075,34.4053],[133.8113,34.4043],[133.8121,34.4087]]],[[[133.8046,34.4274],[133.7956,34.4253],[133.8002,34.4218],[133.8,34.4179],[133.8044,34.4151],[133.8064,34.419],[133.8091,34.4208],[133.8046,34.4274]]]]}},{"type":"Feature","properties":{"name":"善通寺市"},"geometry":{"type":"MultiPolygon","coordinates":[[[[133.7758,34.2567],[133.7739,34.2556],[133.7765,34.2492],[133.7724,34.2487],[133.7689,34.2469],[133.7645,34.2507],[133.7535,34.2461],[133.7556,34.2428],[133.7553,34.2405],[133.7504,34.2375],[133.747,34.2425],[133.7409,34.2436],[133.7368,34.2395],[133.7354,34.2351],[133.7286,34.2328],[133.7266,34.2289],[133.7271,34.2265],[133.7335,34.2193],[133.7375,34.2139],[133.7403,34.2127],[133.7441,34.2131],[133.75,34.2114],[133.7496,34.2094],[133.7527,34.205],[133.7554,34.2038],[133.7559,34.1981],[133.773,34.1991],[133.7779,34.1962],[133.7849,34.1985],[133.7887,34.1964],[133.7929,34.1912],[133.796,34.1889],[133.8001,34.188],[133.8086,34.1936],[133.8123,34.1948],[133.8147,34.1975],[133.8131,34.1996],[133.8098,34.208],[133.8076,34.2116],[133.8052,34.2199],[133.8141,34.2227],[133.8176,34.2262],[133.8218,34.2257],[133.8228,34.2264],[133.8181,34.2332],[133.8192,34.2372],[133.8166,34.2413],[133.8084,34.2377],[133.8082,34.2397],[133.8015,34.2493],[133.7955,34.2589],[133.7862,34.2544],[133.7826,34.255],[133.7813,34.2591],[133.7758,34.2567]]]]}},{"type":"Feature","properties":{"name":"観音寺市"},"geometry":{"type":"MultiPolygon","coordinates":[[[[133.5272,34.1366],[133.5259,34.1333],[133.5285,34.1321],[133.5308,34.1276],[133.5331,34.126],[133.5385,34.1258],[133.5419,34.1289],[133.5396,34.1329],[133.5368,34.1312],[133.5333,34.1327],[133.531,34.1363],[133.5272,34.1366]]],[[[133.7405,34.0502],[133.7384,34.0576],[133.7343,34.0616],[133.7335,34.0658],[133.7337,34.0749],[133.7312,34.0807],[133.7324,34.0831],[133.7291,34.0844],[133.7268,34.0881],[133.7218,34.0894],[133.7172,34.0877],[133.7176,34.0914],[133.7158,34.0932],[133.7152,34.0991],[133.7167,34.1018],[133.713,34.1037],[133.7117,34.1098],[133.713,34.1122],[133.7098,34.1162],[133.7126,34.1211],[133.7125,34.1242],[133.7102,34.1252],[133.7122,34.1288],[133.7087,34.1295],[133.7012,34.1346],[133.6924,34.1376],[133.6877,34.1358],[133.6761,34.1412],[133.6691,34.1434],[133.6673,34.1461],[133.6673,34.1508],[133.6657,34.1552],[133.6682,34.1578],[133.6673,34.1604],[133.6618,34.1655],[133.656,34.1619],[133.6513,34.1638],[133.646,34.1644],[133.6454,34.1589],[133.6431,34.1555],[133.64,34.1541],[133.6403,34.1505],[133.6427,34.1489],[133.6397,34.1308],[133.6381,34.1304],[133.6392,34.1248],[133.6352,34.1227],[133.6325,34.1231],[133.6329,34.1193],[133.628,34.119],[133.6299,34.1152],[133.6345,34.1133],[133.6369,34.1139],[133.6358,34.095],[133.6381,34.0923],[133.6352,34.0841],[133.6333,34.0837],[133.6316,34.0802],[133.6325,34.0764],[133.6315,34.0723],[133.6338,34.0702],[133.6312,34.0601],[133.6295,34.0586],[133.6277,34.0532],[133.6228,34.0494],[133.6136,34.0463],[133.6113,34.0447],[133.6013,34.0432],[133.6008,34.0411],[133.6042,34.0359],[133.6075,34.0368],[133.6087,34.0343],[133.6133,34.0323],[133.6163,34.0328],[133.6189,34.0351],[133.6211,34.0346],[133.6269,34.0378],[133.6296,34.0359],[133.6329,34.0312],[133.6362,34.0295],[133.6395,34.0259],[133.6444,34.0277],[133.6492,34.0271],[133.656,34.0291],[133.6586,34.0277],[133.6654,34.0271],[133.6704,34.0241],[133.6719,34.0207],[133.6782,34.0182],[133.6775,34.0158],[133.6795,34.0125],[133.6855,34.0132],[133.6885,34.0124],[133.6936,34.015],[133.6974,34.0157],[133.7003,34.0178],[133.7088,34.0154],[133.7107,34.017],[133.7213,34.0223],[133.723,34.0254],[133.7218,34.0298],[133.7231,34.0365],[133.7278,34.0411],[133.729,34.0442],[133.733,34.0449],[133.7405,34.0502]]]]}},{"type":"Feature","properties":{"name":"さぬき市"},"geometry":{"type":"MultiPolygon","coordinates":[[[[134.1554,34.3106],[134.1589,34.308],[134.159,34.3047],[134.1607,34.3032],[134.1587,34.2983],[134.1547,34.2939],[134.1567,34.2894],[134.1566,34.2838],[134.1622,34.2786],[134.1638,34.2795],[134.1689,34.2787],[134.1688,34.2758],[134.1669,34.2745],[134.1653,34.2685],[134.1627,34.2638],[134.167,34.2553],[134.1638,34.253],[134.1631,34.2486],[134.1644,34.246],[134.1679,34.2447],[134.1693,34.2422],[134.1679,34.2404],[134.1696,34.2377],[134.1656,34.2359],[134.1651,34.2328],[134.169,34.2278],[134.1686,34.2237],[134.1671,34.2196],[134.1638,34.2161],[134.1647,34.2116],[134.1632,34.2108],[134.1628,34.2037],[134.1648,34.2027],[134.166,34.1983],[134.1641,34.1948],[134.1637,34.1903],[134.165,34.1886],[134.1644,34.1833],[134.1609,34.1827],[134.1615,34.1794],[134.1586,34.1765],[134.158,34.172],[134.1561,34.1719],[134.1554,34.1667],[134.1593,34.1697],[134.1632,34.1698],[134.1685,34.1745],[134.1731,34.1758],[134.1827,34.174],[134.1853,34.1743],[134.1951,34.1719],[134.1983,34.1754],[134.2043,34.1727],[134.2087,34.1747],[134.2131,34.178],[134.2144,34.1821],[134.2124,34.1849],[134.216,34.1908],[134.2136,34.1911],[134.2106,34.194],[134.2069,34.1999],[134.2087,34.203],[134.217,34.2036],[134.2172,34.2093],[134.2302,34.2095],[134.238,34.2131],[134.2407,34.2159],[134.2464,34.2168],[134.2531,34.2214],[134.2552,34.2199],[134.2594,34.2195],[134.2641,34.2206],[134.2691,34.2181],[134.272,34.2156],[134.276,34.215],[134.2746,34.2199],[134.2742,34.227],[134.2751,34.2285],[134.2735,34.238],[134.2761,34.2383],[134.2778,34.2422],[134.281,34.2432],[134.2781,34.2478],[134.2793,34.2488],[134.2749,34.252],[134.2744,34.2566],[134.2771,34.2611],[134.2767,34.2639],[134.2806,34.2632],[134.283,34.265],[134.2867,34.2703],[134.2881,34.2753],[134.2823,34.2791],[134.2805,34.279],[134.2763,34.2825],[134.2748,34.2849],[134.2761,34.2867],[134.2717,34.2891],[134.2682,34.2879],[134.2682,34.284],[134.2649,34.2848],[134.2624,34.2828],[134.2557,34.2871],[134.2505,34.2952],[134.2502,34.2976],[134.2467,34.3039],[134.2483,34.3078],[134.2513,34.3114],[134.2591,34.3143],[134.26,34.318],[134.2648,34.3191],[134.2618,34.3294],[134.2627,34.3316],[134.2664,34.3328],[134.2658,34.3366],[134.2585,34.3366],[134.2565,34.3396],[134.2574,34.3453],[134.2501,34.3516],[134.2466,34.3492],[134.2446,34.3456],[134.2424,34.3443],[134.2408,34.3404],[134.2363,34.3395],[134.2338,34.3372],[134.232,34.3392],[134.2262,34.342],[134.2243,34.3467],[134.2205,34.3474],[134.2183,34.3497],[134.2186,34.3534],[134.2174,34.3557],[134.2166,34.362],[134.2153,34.3648],[134.2117,34.3656],[134.2113,34.3691],[134.207,34.3696],[134.2043,34.3668],[134.2063,34.3604],[134.2098,34.358],[134.2101,34.3548],[134.2134,34.3499],[134.2088,34.3452],[134.2047,34.3432],[134.1975,34.3455],[134.1923,34.3439],[134.1901,34.3497],[134.1881,34.3513],[134.1831,34.3517],[134.1837,34.3465],[134.1869,34.346],[134.187,34.3395],[134.185,34.3336],[134.1782,34.3322],[134.1786,34.3267],[134.174,34.3243],[134.1657,34.3261],[134.1648,34.3223],[134.1606,34.3175],[134.1591,34.3141],[134.1554,34.3106]]]]}},{"type":"Feature","properties":{"name":"東かがわ市"},"geometry":{"type":"MultiPolygon","coordinates":[[[[134.2087,34.1747],[134.216,34.1764],[134.2206,34.1799],[134.2237,34.1798],[134.2271,34.1778],[134.228,34.1805],[134.237,34.1805],[134.2445,34.1797],[134.2474,34.1787],[134.2508,34.1805],[134.2566,34.181],[134.2603,34.1836],[134.2734,34.1811],[134.2772,34.1765],[134.2872,34.1801],[134.2922,34.1791],[134.2961,34.1728],[134.2976,34.1687],[134.3002,34.1703],[134.3081,34.1708],[134.3106,34.1747],[134.3144,34.1772],[134.3283,34.1732],[134.3341,34.1755],[134.3442,34.1724],[134.3464,34.1757],[134.3481,34.1839],[134.3498,34.1853],[134.358,34.1847],[134.3603,34.1821],[134.3632,34.1818],[134.3687,34.1783],[134.3701,34.176],[134.375,34.1733],[134.3757,34.1718],[134.3831,34.1721],[134.3855,34.1651],[134.3886,34.1652],[134.3937,34.1635],[134.3971,34.1648],[134.4001,34.1678],[134.4042,34.167],[134.4074,34.1625],[134.4114,34.1615],[134.4128,34.1571],[134.4196,34.1579],[134.4252,34.1657],[134.4285,34.1674],[134.4328,34.1681],[134.4339,34.1695],[134.4329,34.1734],[134.4342,34.1748],[134.4336,34.1788],[134.4306,34.179],[134.4293,34.1833],[134.4316,34.1862],[134.438,34.1894],[134.4389,34.1978],[134.4407,34.1998],[134.4402,34.2073],[134.4378,34.207],[134.4283,34.2112],[134.4152,34.2194],[134.4145,34.2216],[134.4099,34.223],[134.4064,34.2264],[134.4068,34.2311],[134.4119,34.2325],[134.4121,34.235],[134.4071,34.238],[134.402,34.2384],[134.3992,34.2365],[134.3964,34.2388],[134.3986,34.2415],[134.3975,34.2447],[134.3937,34.2511],[134.3901,34.2548],[134.3831,34.2574],[134.3775,34.2606],[134.3754,34.2595],[134.3769,34.2537],[134.3748,34.2522],[134.3684,34.2498],[134.3622,34.2499],[134.3568,34.2535],[134.3519,34.2521],[134.3468,34.2525],[134.3405,34.255],[134.3385,34.2588],[134.3342,34.2586],[134.3283,34.262],[134.3235,34.2656],[134.3178,34.2711],[134.313,34.2747],[134.3089,34.2755],[134.3059,34.2785],[134.302,34.2758],[134.2976,34.2756],[134.2961,34.274],[134.2881,34.2753],[134.2867,34.2703],[134.283,34.265],[134.2806,34.2632],[134.2767,34.2639],[134.2771,34.2611],[134.2744,34.2566],[134.2749,34.252],[134.2793,34.2488],[134.2781,34.2478],[134.281,34.2432],[134.2778,34.2422],[134.2761,34.2383],[134.2735,34.238],[134.2751,34.2285],[134.2742,34.227],[134.2746,34.2199],[134.276,34.215],[134.272,34.2156],[134.2691,34.2181],[134.2641,34.2206],[134.2594,34.2195],[134.2552,34.2199],[134.2531,34.2214],[134.2464,34.2168],[134.2407,34.2159],[134.238,34.2131],[134.2302,34.2095],[134.2172,34.2093],[134.217,34.2036],[134.2087,34.203],[134.2069,34.1999],[134.2106,34.194],[134.2136,34.1911],[134.216,34.1908],[134.2124,34.1849],[134.2144,34.1821],[134.2131,34.178],[134.2087,34.1747]]]]}},{"type":"Feature","properties":{"name":"三豊市"},"geometry":{"type":"MultiPolygon","coordinates":[[[[133.6253,34.2035],[133.6223,34.202],[133.624,34.1996],[133.6277,34.1981],[133.6281,34.2007],[133.6253,34.2035]]],[[[133.7286,34.2328],[133.7251,34.2332],[133.7236,34.231],[133.7198,34.23],[133.7153,34.2355],[133.7128,34.2356],[133.7089,34.2409],[133.7042,34.2392],[133.7019,34.236],[133.6982,34.2343],[133.6947,34.237],[133.6881,34.2371],[133.688,34.2333],[133.6816,34.234],[133.6796,34.2326],[133.6773,34.2246],[133.674,34.222],[133.6716,34.2238],[133.6758,34.2272],[133.6785,34.2363],[133.6752,34.2369],[133.6724,34.2269],[133.6681,34.233],[133.6703,34.2406],[133.6743,34.2427],[133.6743,34.2451],[133.6716,34.2465],[133.6666,34.2405],[133.6595,34.2398],[133.6557,34.2353],[133.6491,34.2328],[133.6339,34.2389],[133.6272,34.2377],[133.6229,34.2356],[133.6192,34.2369],[133.6163,34.24],[133.6165,34.2434],[133.6123,34.2506],[133.609,34.2524],[133.606,34.252],[133.6029,34.2533],[133.5914,34.2553],[133.5893,34.257],[133.5878,34.2609],[133.5831,34.2604],[133.5751,34.2627],[133.574,34.2651],[133.5684,34.265],[133.5653,34.2636],[133.5578,34.2625],[133.5604,34.2602],[133.5694,34.26],[133.5757,34.2565],[133.5736,34.252],[133.5793,34.2507],[133.5783,34.2471],[133.5751,34.2443],[133.5835,34.2435],[133.5888,34.2405],[133.5907,34.2381],[133.5968,34.2359],[133.6008,34.2338],[133.6038,34.2344],[133.6084,34.2306],[133.6103,34.2257],[133.6094,34.2234],[133.6142,34.22],[133.6171,34.221],[133.6208,34.218],[133.6223,34.2148],[133.6321,34.2118],[133.6349,34.2099],[133.635,34.2062],[133.6372,34.2034],[133.6374,34.2007],[133.6435,34.1915],[133.6482,34.1917],[133.649,34.1856],[133.646,34.1835],[133.6451,34.1806],[133.6472,34.1784],[133.6476,34.171],[133.646,34.1644],[133.6513,34.1638],[133.656,34.1619],[133.6618,34.1655],[133.6673,34.1604],[133.6682,34.1578],[133.6657,34.1552],[133.6673,34.1508],[133.6673,34.1461],[133.6691,34.1434],[133.6761,34.1412],[133.6877,34.1358],[133.6924,34.1376],[133.7012,34.1346],[133.7087,34.1295],[133.7122,34.1288],[133.7102,34.1252],[133.7125,34.1242],[133.7126,34.1211],[133.7098,34.1162],[133.713,34.1122],[133.7117,34.1098],[133.713,34.1037],[133.7167,34.1018],[133.7152,34.0991],[133.7158,34.0932],[133.7176,34.0914],[133.7172,34.0877],[133.7218,34.0894],[133.7268,34.0881],[133.7291,34.0844],[133.7324,34.0831],[133.7312,34.0807],[133.7337,34.0749],[133.7335,34.0658],[133.7343,34.0616],[133.7384,34.0576],[133.7405,34.0502],[133.7495,34.0543],[133.751,34.0566],[133.7565,34.0593],[133.7603,34.0646],[133.7634,34.0668],[133.7634,34.0698],[133.7678,34.0723],[133.775,34.0743],[133.778,34.0789],[133.782,34.0801],[133.7853,34.0798],[133.7888,34.0778],[133.7904,34.0753],[133.7958,34.0704],[133.8001,34.0695],[133.8103,34.0726],[133.815,34.0733],[133.8177,34.0722],[133.8191,34.0752],[133.8185,34.0797],[133.823,34.0848],[133.8222,34.0922],[133.8212,34.0968],[133.8184,34.1028],[133.8201,34.109],[133.8172,34.1146],[133.8175,34.1185],[133.8157,34.1222],[133.8183,34.1283],[133.8168,34.1317],[133.8174,34.1379],[133.8163,34.1388],[133.816,34.1445],[133.8171,34.1454],[133.8124,34.15],[133.811,34.1531],[133.8122,34.1576],[133.8085,34.1572],[133.8059,34.1541],[133.8025,34.1529],[133.8007,34.1562],[133.8039,34.1633],[133.8028,34.17],[133.8035,34.1733],[133.8062,34.1752],[133.807,34.1822],[133.8001,34.188],[133.796,34.1889],[133.7929,34.1912],[133.7887,34.1964],[133.7849,34.1985],[133.7779,34.1962],[133.773,34.1991],[133.7559,34.1981],[133.7554,34.2038],[133.7527,34.205],[133.7496,34.2094],[133.75,34.2114],[133.7441,34.2131],[133.7403,34.2127],[133.7375,34.2139],[133.7335,34.2193],[133.7271,34.2265],[133.7266,34.2289],[133.7286,34.2328]]],[[[133.6746,34.2746],[133.6702,34.2722],[133.6737,34.2698],[133.6809,34.2673],[133.6817,34.2729],[133.6746,34.2746]]],[[[133.6264,34.2871],[133.6237,34.2867],[133.6218,34.2841],[133.6215,34.2809],[133.6247,34.2782],[133.6276,34.278],[133.6269,34.2714],[133.6225,34.2697],[133.6177,34.2658],[133.6194,34.2633],[133.6172,34.2591],[133.6228,34.2561],[133.6247,34.2607],[133.6286,34.2613],[133.6303,34.2634],[133.6323,34.2688],[133.6392,34.2697],[133.6421,34.2717],[133.6507,34.2679],[133.655,34.2707],[133.6524,34.2748],[133.6563,34.2812],[133.6497,34.2794],[133.6474,34.2811],[133.6443,34.2775],[133.6445,34.2749],[133.6392,34.2723],[133.6325,34.2741],[133.6288,34.2779],[133.63,34.2812],[133.632,34.282],[133.6309,34.2856],[133.6264,34.2871]]]]}},{"type":"Feature","properties":{"name":"土庄町"},"geometry":{"type":"MultiPolygon","coordinates":[[[[134.1895,34.4728],[134.1846,34.4701],[134.1855,34.4677],[134.1904,34.4708],[134.1895,34.4728]]],[[[134.1271,34.4822],[134.1225,34.4798],[134.1201,34.481],[134.1158,34.4804],[134.1137,34.4787],[134.1104,34.4796],[134.1081,34.4751],[134.1135,34.473],[134.1178,34.473],[134.1255,34.4761],[134.1279,34.4794],[134.1271,34.4822]]],[[[134.0855,34.4994],[134.0802,34.4992],[134.0769,34.4968],[134.0695,34.497],[134.0665,34.4941],[134.0634,34.4932],[134.0631,34.4909],[134.0588,34.4881],[134.0523,34.4874],[134.0419,34.4884],[134.0413,34.4833],[134.0361,34.4814],[134.0382,34.479],[134.0437,34.4787],[134.0451,34.4765],[134.0518,34.4723],[134.0623,34.4701],[134.0656,34.4705],[134.0705,34.4675],[134.0757,34.4622],[134.0813,34.4592],[134.0844,34.4604],[134.0893,34.4657],[134.09,34.4694],[134.0935,34.473],[134.1027,34.4791],[134.1038,34.4817],[134.1029,34.4846],[134.1046,34.487],[134.1026,34.4897],[134.0935,34.4905],[134.0871,34.4947],[134.0878,34.4973],[134.0855,34.4994]]],[[[134.1512,34.5207],[134.1448,34.5203],[134.1448,34.5175],[134.1496,34.5161],[134.1526,34.5182],[134.1512,34.5207]]],[[[134.3325,34.5632],[134.3291,34.5639],[134.3235,34.5621],[134.3194,34.5598],[134.3148,34.5591],[134.3084,34.5546],[134.3047,34.5492],[134.2952,34.5467],[134.2802,34.5473],[134.2777,34.5488],[134.2729,34.5476],[134.2688,34.5495],[134.2699,34.5523],[134.268,34.5535],[134.2627,34.5521],[134.2618,34.5488],[134.259,34.5499],[134.257,34.548],[134.2564,34.5432],[134.2546,34.543],[134.2487,34.5397],[134.242,34.5351],[134.2396,34.5301],[134.2332,34.5285],[134.2299,34.527],[134.2241,34.5295],[134.2175,34.5259],[134.2138,34.5229],[134.203,34.52],[134.1983,34.5198],[134.1918,34.5207],[134.1855,34.5158],[134.1786,34.5177],[134.1705,34.5263],[134.1651,34.5188],[134.1668,34.5166],[134.1645,34.5117],[134.1608,34.5099],[134.1582,34.505],[134.164,34.5077],[134.1665,34.5054],[134.1655,34.5],[134.1682,34.4989],[134.1714,34.4944],[134.1765,34.4915],[134.1728,34.489],[134.167,34.4934],[134.1626,34.4922],[134.1564,34.492],[134.1506,34.485],[134.148,34.4835],[134.1447,34.4788],[134.1437,34.4728],[134.1413,34.4702],[134.1445,34.468],[134.1475,34.4684],[134.1517,34.4613],[134.1561,34.4614],[134.1594,34.4636],[134.1628,34.4623],[134.1683,34.4648],[134.1699,34.4695],[134.1718,34.4712],[134.1711,34.4736],[134.1758,34.4766],[134.1815,34.4756],[134.1848,34.4794],[134.1872,34.4794],[134.1922,34.4814],[134.1944,34.4848],[134.1998,34.4827],[134.2017,34.4884],[134.2067,34.4888],[134.2102,34.4905],[134.2235,34.4949],[134.2275,34.5004],[134.2273,34.5028],[134.2313,34.5036],[134.2328,34.5081],[134.2371,34.5107],[134.2407,34.5117],[134.2453,34.5089],[134.2505,34.5093],[134.2532,34.5066],[134.2575,34.5069],[134.2584,34.5101],[134.2534,34.5112],[134.2571,34.5181],[134.2608,34.5178],[134.2611,34.5157],[134.2592,34.5126],[134.2661,34.5119],[134.2747,34.5155],[134.2788,34.5141],[134.2793,34.5194],[134.2873,34.5177],[134.2999,34.5177],[134.3025,34.5181],[134.3057,34.523],[134.3119,34.5228],[134.3175,34.5387],[134.3199,34.5429],[134.3193,34.5478],[134.3219,34.5495],[134.3229,34.5532],[134.3289,34.556],[134.3325,34.5632]]]]}},{"type":"Feature","properties":{"name":"小豆島町"},"geometry":{"type":"MultiPolygon","coordinates":[[[[134.301,34.4742],[134.3026,34.4759],[134.3009,34.4765],[134.299,34.4779],[134.2976,34.4754],[134.301,34.4742]]],[[[134.1998,34.4827],[134.2042,34.4809],[134.2073,34.4832],[134.2121,34.4815],[134.2154,34.4783],[134.2142,34.4769],[134.2181,34.4743],[134.2218,34.4786],[134.2284,34.4806],[134.2335,34.4765],[134.2325,34.4743],[134.2295,34.4724],[134.2296,34.4689],[134.2361,34.4705],[134.2384,34.4671],[134.2384,34.4637],[134.2408,34.4633],[134.242,34.4584],[134.2381,34.4561],[134.2389,34.4506],[134.2358,34.4474],[134.2345,34.444],[134.2277,34.4426],[134.2235,34.4384],[134.2269,34.4366],[134.2362,34.4384],[134.2387,34.4325],[134.2378,34.4307],[134.2329,34.4283],[134.2263,34.4269],[134.2246,34.425],[134.229,34.4211],[134.2311,34.4156],[134.2329,34.4147],[134.2393,34.4154],[134.2457,34.4188],[134.2471,34.4212],[134.2513,34.4244],[134.2467,34.4273],[134.2486,34.4335],[134.2517,34.4363],[134.2513,34.439],[134.2555,34.4417],[134.2601,34.448],[134.2626,34.4497],[134.2596,34.4544],[134.265,34.4604],[134.2669,34.4636],[134.2676,34.4679],[134.2695,34.4687],[134.276,34.469],[134.2788,34.4709],[134.2831,34.4714],[134.2853,34.4732],[134.2889,34.4736],[134.2927,34.4758],[134.2963,34.4797],[134.301,34.4766],[134.302,34.4783],[134.3039,34.4769],[134.3102,34.4775],[134.3119,34.4768],[134.313,34.473],[134.316,34.471],[134.3175,34.4648],[134.3167,34.4596],[134.3122,34.4602],[134.3074,34.463],[134.3045,34.4606],[134.3008,34.4598],[134.2972,34.4624],[134.295,34.4609],[134.2899,34.4624],[134.2842,34.4608],[134.283,34.4591],[134.2846,34.4524],[134.2872,34.4498],[134.2844,34.4456],[134.2811,34.4482],[134.2782,34.4481],[134.2806,34.4439],[134.2844,34.4422],[134.2867,34.4458],[134.2923,34.4468],[134.2998,34.4527],[134.3002,34.4563],[134.3044,34.4578],[134.3079,34.4559],[134.312,34.4556],[134.3196,34.458],[134.3253,34.4509],[134.3248,34.4495],[134.33,34.4458],[134.3298,34.4407],[134.3333,34.4351],[134.3378,34.4329],[134.3404,34.4378],[134.3367,34.4434],[134.3354,34.4473],[134.3372,34.4509],[134.3401,34.451],[134.3494,34.4612],[134.3493,34.4642],[134.3527,34.4701],[134.3512,34.4728],[134.3536,34.4777],[134.3479,34.4791],[134.343,34.4845],[134.3428,34.4879],[134.3513,34.4927],[134.3506,34.4982],[134.3473,34.5004],[134.35,34.5061],[134.3542,34.5078],[134.3564,34.5117],[134.3565,34.5166],[134.3554,34.5241],[134.3601,34.529],[134.3584,34.5337],[134.355,34.5388],[134.3516,34.5383],[134.3452,34.5408],[134.3443,34.544],[134.3476,34.5465],[134.3479,34.5511],[134.3552,34.5578],[134.3573,34.5569],[134.3631,34.5577],[134.3635,34.5605],[134.3564,34.5608],[134.354,34.5575],[134.3461,34.5578],[134.3474,34.561],[134.35,34.5607],[134.3511,34.5639],[134.3448,34.5646],[134.3368,34.5624],[134.3325,34.5632],[134.3289,34.556],[134.3229,34.5532],[134.3219,34.5495],[134.3193,34.5478],[134.3199,34.5429],[134.3175,34.5387],[134.3119,34.5228],[134.3057,34.523],[134.3025,34.5181],[134.2999,34.5177],[134.2873,34.5177],[134.2793,34.5194],[134.2788,34.5141],[134.2747,34.5155],[134.2661,34.5119],[134.2592,34.5126],[134.2611,34.5157],[134.2608,34.5178],[134.2571,34.5181],[134.2534,34.5112],[134.2584,34.5101],[134.2575,34.5069],[134.2532,34.5066],[134.2505,34.5093],[134.2453,34.5089],[134.2407,34.5117],[134.2371,34.5107],[134.2328,34.5081],[134.2313,34.5036],[134.2273,34.5028],[134.2275,34.5004],[134.2235,34.4949],[134.2102,34.4905],[134.2067,34.4888],[134.2017,34.4884],[134.1998,34.4827]]]]}},{"type":"Feature","properties":{"name":"三木町"},"geometry":{"type":"MultiPolygon","coordinates":[[[[134.1353,34.1515],[134.1372,34.1547],[134.1407,34.1552],[134.1438,34.1587],[134.1457,34.1645],[134.1506,34.1663],[134.1554,34.1667],[134.1561,34.1719],[134.158,34.172],[134.1586,34.1765],[134.1615,34.1794],[134.1609,34.1827],[134.1644,34.1833],[134.165,34.1886],[134.1637,34.1903],[134.1641,34.1948],[134.166,34.1983],[134.1648,34.2027],[134.1628,34.2037],[134.1632,34.2108],[134.1647,34.2116],[134.1638,34.2161],[134.1671,34.2196],[134.1686,34.2237],[134.169,34.2278],[134.1651,34.2328],[134.1656,34.2359],[134.1696,34.2377],[134.1679,34.2404],[134.1693,34.2422],[134.1679,34.2447],[134.1644,34.246],[134.1631,34.2486],[134.1638,34.253],[134.167,34.2553],[134.1627,34.2638],[134.1653,34.2685],[134.1669,34.2745],[134.1688,34.2758],[134.1689,34.2787],[134.1638,34.2795],[134.1622,34.2786],[134.1566,34.2838],[134.1567,34.2894],[134.1547,34.2939],[134.1587,34.2983],[134.1607,34.3032],[134.159,34.3047],[134.1589,34.308],[134.1554,34.3106],[134.1493,34.3135],[134.1398,34.3142],[134.1371,34.3131],[134.1335,34.3143],[134.1302,34.3173],[134.125,34.31],[134.1265,34.304],[134.1255,34.2986],[134.122,34.2974],[134.1211,34.2941],[134.1222,34.2918],[134.1191,34.2903],[134.1192,34.2876],[134.1145,34.2685],[134.1125,34.2623],[134.1116,34.2544],[134.1095,34.2522],[134.1115,34.249],[134.1104,34.2447],[134.1122,34.24],[134.1146,34.2383],[134.1134,34.2354],[134.1112,34.2348],[134.1111,34.2318],[134.1131,34.2301],[134.1144,34.2265],[134.1121,34.2251],[134.1121,34.2218],[134.1087,34.2197],[134.1056,34.2146],[134.1069,34.2105],[134.1054,34.2095],[134.1052,34.2016],[134.1093,34.1983],[134.1104,34.193],[134.1097,34.1834],[134.1143,34.1808],[134.1123,34.1781],[134.1181,34.1732],[134.1223,34.1675],[134.1237,34.1619],[134.1254,34.1603],[134.1282,34.1527],[134.131,34.1509],[134.1353,34.1515]]]]}},{"type":"Feature","properties":{"name":"直島町"},"geometry":{"type":"MultiPolygon","coordinates":[[[[134.0136,34.4423],[134.0096,34.4411],[134.0078,34.4421],[134.0038,34.4401],[134.0071,34.4356],[134.0104,34.4361],[134.0143,34.4399],[134.0136,34.4423]]],[[[133.9655,34.4618],[133.9609,34.4587],[133.9588,34.4608],[133.9564,34.4606],[133.9559,34.4577],[133.9587,34.4545],[133.9613,34.4551],[133.965,34.454],[133.967,34.4557],[133.9655,34.4618]]],[[[134.0044,34.4732],[134.0014,34.4726],[133.9988,34.4701],[133.9998,34.4625],[134.0044,34.462],[134.0068,34.4665],[134.0094,34.4681],[134.0087,34.4713],[134.0042,34.4692],[134.0044,34.4732]]],[[[133.9537,34.4778],[133.9507,34.4755],[133.9507,34.4735],[133.9549,34.4711],[133.9549,34.4683],[133.9588,34.4686],[133.9584,34.4717],[133.9537,34.4778]]],[[[133.9959,34.4778],[133.9926,34.4757],[133.9965,34.4726],[133.9959,34.4778]]],[[[133.9698,34.478],[133.9658,34.477],[133.9663,34.4716],[133.9676,34.4689],[133.9669,34.4665],[133.9699,34.4604],[133.9745,34.4574],[133.9754,34.4543],[133.9733,34.4531],[133.9763,34.449],[133.9796,34.4494],[133.9843,34.4463],[133.9877,34.4466],[133.9911,34.4431],[133.9931,34.4462],[134.0026,34.4452],[134.009,34.4476],[134.0117,34.4542],[134.0051,34.4528],[134.003,34.4507],[133.9997,34.4549],[134.0009,34.4565],[133.9994,34.461],[133.9886,34.4677],[133.9831,34.472],[133.9823,34.4756],[133.9778,34.4753],[133.9719,34.4731],[133.9698,34.478]]],[[[133.9723,34.4805],[133.9716,34.4748],[133.976,34.4752],[133.9775,34.4783],[133.9737,34.4781],[133.9723,34.4805]]],[[[133.9941,34.4868],[133.9897,34.4844],[133.9902,34.4815],[133.994,34.4828],[133.9941,34.4868]]],[[[133.9791,34.4951],[133.9772,34.4932],[133.98,34.4882],[133.9835,34.4889],[133.9843,34.4926],[133.9811,34.492],[133.9791,34.4951]]],[[[134.0238,34.5063],[134.0194,34.5034],[134.019,34.4982],[134.0168,34.4965],[134.012,34.4962],[134.0105,34.4942],[134.0111,34.4872],[134.0137,34.4867],[134.0154,34.4813],[134.0191,34.4801],[134.0207,34.4864],[134.0203,34.4892],[134.0219,34.4917],[134.0238,34.5063]]],[[[133.9736,34.5125],[133.9704,34.5091],[133.9706,34.5057],[133.9756,34.5053],[133.9739,34.5088],[133.9736,34.5125]]]]}},{"type":"Feature","properties":{"name":"宇多津町"},"geometry":{"type":"MultiPolygon","coordinates":[[[[133.8364,34.2879],[133.8372,34.2904],[133.8413,34.2934],[133.8393,34.2998],[133.8401,34.3029],[133.8434,34.3066],[133.8392,34.3111],[133.8371,34.3157],[133.8315,34.3196],[133.8293,34.3235],[133.8247,34.3234],[133.8193,34.321],[133.8207,34.3188],[133.8153,34.3173],[133.8073,34.3134],[133.8063,34.3106],[133.8074,34.3039],[133.8105,34.3009],[133.8157,34.3047],[133.8222,34.3009],[133.8235,34.2969],[133.8265,34.2953],[133.8316,34.2907],[133.833,34.2871],[133.8364,34.2879]]],[[[133.8209,34.3379],[133.8205,34.3353],[133.8227,34.3256],[133.8277,34.3261],[133.8258,34.3375],[133.8209,34.3379]]]]}},{"type":"Feature","properties":{"name":"綾川町"},"geometry":{"type":"MultiPolygon","coordinates":[[[[133.944,34.2785],[133.9426,34.2779],[133.941,34.2728],[133.9378,34.2689],[133.9328,34.2665],[133.9305,34.2699],[133.9233,34.2655],[133.9191,34.2657],[133.9149,34.2645],[133.9135,34.2656],[133.9054,34.2633],[133.9037,34.2641],[133.9023,34.2623],[133.9029,34.2573],[133.9007,34.256],[133.9,34.2526],[133.8978,34.2496],[133.8944,34.2486],[133.8933,34.2446],[133.8974,34.245],[133.9006,34.2405],[133.8975,34.2371],[133.899,34.2345],[133.8985,34.2314],[133.8987,34.2216],[133.8955,34.2135],[133.9007,34.209],[133.9023,34.2045],[133.9073,34.202],[133.9096,34.2025],[133.9121,34.2004],[133.9169,34.1999],[133.918,34.1968],[133.9227,34.1959],[133.9244,34.1941],[133.9286,34.1927],[133.9271,34.1902],[133.9333,34.1863],[133.934,34.1812],[133.939,34.1797],[133.9423,34.1746],[133.9469,34.1706],[133.9475,34.1618],[133.9505,34.1573],[133.9531,34.1585],[133.9617,34.1588],[133.968,34.157],[133.9724,34.1579],[133.9756,34.1569],[133.9782,34.1537],[133.9823,34.1549],[133.9883,34.1479],[133.9891,34.1454],[133.9938,34.1445],[133.9983,34.1465],[134.0037,34.1443],[134.0061,34.1452],[134.0101,34.1438],[134.0111,34.1406],[134.0166,34.1382],[134.0188,34.1394],[134.0246,34.1397],[134.0224,34.1522],[134.0233,34.1552],[134.0209,34.1581],[134.0219,34.16],[134.0256,34.1611],[134.0256,34.1657],[134.0282,34.1679],[134.0277,34.1719],[134.0242,34.1744],[134.0233,34.1803],[134.025,34.183],[134.0254,34.1878],[134.0234,34.1899],[134.0171,34.1899],[134.0152,34.2015],[134.0154,34.2047],[134.0134,34.2066],[134.0129,34.2116],[134.0102,34.2128],[134.0089,34.2169],[134.0044,34.2186],[133.994,34.2302],[133.993,34.2355],[133.9891,34.2358],[133.9885,34.2384],[133.9852,34.242],[133.9863,34.2477],[133.9884,34.253],[133.9901,34.254],[133.9934,34.2602],[133.9923,34.2633],[133.9887,34.2668],[133.9877,34.262],[133.9839,34.2661],[133.9789,34.264],[133.9705,34.2632],[133.9658,34.2657],[133.9623,34.2662],[133.9534,34.269],[133.9501,34.2712],[133.9451,34.2703],[133.9439,34.272],[133.944,34.2785]]]]}},{"type":"Feature","properties":{"name":"琴平町"},"geometry":{"type":"MultiPolygon","coordinates":[[[[133.8001,34.188],[133.807,34.1822],[133.8094,34.1785],[133.8126,34.1776],[133.8153,34.1753],[133.8223,34.1752],[133.8272,34.1821],[133.8308,34.1813],[133.836,34.1856],[133.8332,34.1898],[133.8286,34.2003],[133.8313,34.2026],[133.8275,34.206],[133.8227,34.2056],[133.8201,34.2077],[133.8187,34.2118],[133.8201,34.2136],[133.8141,34.2227],[133.8052,34.2199],[133.8076,34.2116],[133.8098,34.208],[133.8131,34.1996],[133.8147,34.1975],[133.8123,34.1948],[133.8086,34.1936],[133.8001,34.188]]]]}},{"type":"Feature","properties":{"name":"多度津町"},"geometry":{"type":"MultiPolygon","coordinates":[[[[133.7642,34.2844],[133.7608,34.2871],[133.757,34.2851],[133.7583,34.2821],[133.7517,34.2787],[133.7468,34.2854],[133.7404,34.2819],[133.7438,34.2774],[133.7471,34.2773],[133.7439,34.2718],[133.7412,34.2717],[133.7401,34.2756],[133.7359,34.2811],[133.7313,34.2787],[133.7302,34.2747],[133.7311,34.2713],[133.737,34.2652],[133.7356,34.2614],[133.7313,34.26],[133.727,34.2573],[133.7247,34.2546],[133.7201,34.2532],[133.7159,34.2489],[133.7132,34.2472],[133.7089,34.2409],[133.7128,34.2356],[133.7153,34.2355],[133.7198,34.23],[133.7236,34.231],[133.7251,34.2332],[133.7286,34.2328],[133.7354,34.2351],[133.7368,34.2395],[133.7409,34.2436],[133.747,34.2425],[133.7504,34.2375],[133.7553,34.2405],[133.7556,34.2428],[133.7535,34.2461],[133.7645,34.2507],[133.7689,34.2469],[133.7724,34.2487],[133.7765,34.2492],[133.7739,34.2556],[133.7758,34.2567],[133.7741,34.2604],[133.7759,34.2631],[133.7725,34.2674],[133.7738,34.2681],[133.7726,34.2722],[133.7642,34.2844]]],[[[133.6643,34.3255],[133.6617,34.324],[133.6644,34.3168],[133.6705,34.3079],[133.6732,34.3063],[133.6801,34.3058],[133.6827,34.3102],[133.6818,34.3147],[133.6801,34.3171],[133.6733,34.3205],[133.6681,34.3244],[133.6643,34.3255]]],[[[133.6466,34.3343],[133.6452,34.3368],[133.6401,34.3375],[133.6384,34.3351],[133.641,34.3335],[133.6466,34.3343]]],[[[133.6213,34.3544],[133.6193,34.3546],[133.6174,34.3511],[133.619,34.3452],[133.6208,34.342],[133.62,34.3335],[133.6226,34.3309],[133.6274,34.3314],[133.63,34.3376],[133.6317,34.339],[133.6296,34.3426],[133.6233,34.3497],[133.6213,34.3544]]]]}},{"type":"Feature","properties":{"name":"まんのう町"},"geometry":{"type":"MultiPolygon","coordinates":[[[[134.0246,34.1397],[134.0188,34.1394],[134.0166,34.1382],[134.0111,34.1406],[134.0101,34.1438],[134.0061,34.1452],[134.0037,34.1443],[133.9983,34.1465],[133.9938,34.1445],[133.9891,34.1454],[133.9883,34.1479],[133.9823,34.1549],[133.9782,34.1537],[133.9756,34.1569],[133.9724,34.1579],[133.968,34.157],[133.9617,34.1588],[133.9531,34.1585],[133.9505,34.1573],[133.9475,34.1618],[133.9469,34.1706],[133.9423,34.1746],[133.939,34.1797],[133.934,34.1812],[133.9333,34.1863],[133.9271,34.1902],[133.9286,34.1927],[133.9244,34.1941],[133.9227,34.1959],[133.918,34.1968],[133.9169,34.1999],[133.9121,34.2004],[133.9096,34.2025],[133.9073,34.202],[133.9023,34.2045],[133.9007,34.209],[133.8979,34.2065],[133.8932,34.2082],[133.8901,34.2063],[133.8828,34.2045],[133.8767,34.204],[133.8687,34.2026],[133.8561,34.2037],[133.8538,34.2009],[133.8503,34.2047],[133.851,34.2072],[133.8455,34.2125],[133.8459,34.215],[133.8421,34.2158],[133.8325,34.2205],[133.8303,34.2191],[133.8282,34.2215],[133.8257,34.2205],[133.8218,34.2257],[133.8176,34.2262],[133.8141,34.2227],[133.8201,34.2136],[133.8187,34.2118],[133.8201,34.2077],[133.8227,34.2056],[133.8275,34.206],[133.8313,34.2026],[133.8286,34.2003],[133.8332,34.1898],[133.836,34.1856],[133.8308,34.1813],[133.8272,34.1821],[133.8223,34.1752],[133.8153,34.1753],[133.8126,34.1776],[133.8094,34.1785],[133.807,34.1822],[133.8062,34.1752],[133.8035,34.1733],[133.8028,34.17],[133.8039,34.1633],[133.8007,34.1562],[133.8025,34.1529],[133.8059,34.1541],[133.8085,34.1572],[133.8122,34.1576],[133.811,34.1531],[133.8124,34.15],[133.8171,34.1454],[133.816,34.1445],[133.8163,34.1388],[133.8174,34.1379],[133.8168,34.1317],[133.8183,34.1283],[133.8157,34.1222],[133.8175,34.1185],[133.8172,34.1146],[133.8201,34.109],[133.8184,34.1028],[133.8212,34.0968],[133.8222,34.0922],[133.826,34.0944],[133.8306,34.0956],[133.8341,34.0977],[133.8383,34.0952],[133.8422,34.095],[133.8495,34.0992],[133.8548,34.1042],[133.863,34.1053],[133.8652,34.1039],[133.8671,34.1002],[133.8706,34.1014],[133.8739,34.1011],[133.8801,34.1041],[133.8849,34.1046],[133.8929,34.1082],[133.9013,34.1001],[133.9078,34.1023],[133.9116,34.1044],[133.9194,34.1123],[133.9223,34.1144],[133.932,34.116],[133.9398,34.1149],[133.9376,34.1082],[133.9396,34.1047],[133.9444,34.1018],[133.9434,34.1],[133.9439,34.0945],[133.9461,34.0919],[133.9486,34.092],[133.9565,34.0881],[133.9592,34.0859],[133.9591,34.0825],[133.9628,34.0812],[133.969,34.0813],[133.9715,34.0778],[133.973,34.073],[133.9769,34.0758],[133.984,34.0744],[133.9887,34.0749],[133.9939,34.0726],[134.0015,34.0752],[134.0022,34.0809],[134.0104,34.0868],[134.0161,34.0864],[134.0218,34.0845],[134.0263,34.0851],[134.0278,34.0874],[134.0256,34.0919],[134.0282,34.0931],[134.0313,34.0974],[134.0371,34.0988],[134.04,34.1009],[134.0418,34.1056],[134.0422,34.1103],[134.0446,34.1138],[134.048,34.1151],[134.0499,34.1174],[134.0361,34.1289],[134.0343,34.1347],[134.0296,34.1398],[134.0246,34.1397]]]]}}]}